GLOBALSTAR M035 [-]     
1 25851U 99037A   24006.41447375 -.00000058  00000+0  21563-3 0  9999
2 25851  51.9926 151.9307 0013539 200.7389 191.7280 11.04528699 37947
GLOBALSTAR M032 [-]     
1 25852U 99037B   24006.42762213 -.00000012  00000+0  17660-2 0  9994
2 25852  51.9982  13.5184 0008908 357.2026   2.8723 11.19048707 75709
GLOBALSTAR M051 [-]     
1 25853U 99037C   24006.00101359 -.00000042  00000+0  73742-3 0  9994
2 25853  51.9766 235.0646 0002017  22.3615 337.7283 11.42195501 72038
GLOBALSTAR M030 [-]     
1 25854U 99037D   24006.47855260 -.00000084  00000+0 -18894-3 0  9997
2 25854  51.9887  73.5673 0004858 173.7664 186.3214 11.55087410 89064
GLOBALSTAR M048 [-]     
1 25872U 99041A   24006.39207934 -.00000052  00000+0  48728-3 0  9995
2 25872  51.9349 148.7404 0012677 356.2512  16.1943 11.33842594 65119
GLOBALSTAR M026 [-]     
1 25873U 99041B   24006.21864878  .00000000  00000+0  23727-2 0  9996
2 25873  52.0010 275.8983 0002039  80.3852  90.7695 11.06833732 90028
GLOBALSTAR M043 [-]     
1 25874U 99041C   24005.93052181 -.00000069  00000+0 -31869-4 0  9996
2 25874  51.9375 236.4301 0013539 128.2558 329.0228 11.25673729 63388
GLOBALSTAR M028 [-]     
1 25875U 99041D   24006.32650030 -.00000100  00000+0  78051-6 0  9999
2 25875  51.9648 327.0060 0063907   5.4334 354.7208 12.50547462124130
